{
  "type": "FeatureCollection",
  "features": [
    {
      "type": "Feature",
      "properties": {
        "hazard_level": "low",
        "label": "SAMPLE DATA - NOT REAL HAZARD DATA"
      },
      "geometry": {
        "type": "Polygon",
        "coordinates": [[[121.015, 13.775], [121.045, 13.775], [121.045, 13.795], [121.015, 13.795], [121.015, 13.775]]]
      }
    },
    {
      "type": "Feature",
      "properties": {
        "hazard_level": "medium",
        "label": "SAMPLE DATA - NOT REAL HAZARD DATA"
      },
      "geometry": {
        "type": "Polygon",
        "coordinates": [[[121.055, 13.735], [121.09, 13.735], [121.09, 13.758], [121.055, 13.758], [121.055, 13.735]]]
      }
    },
    {
      "type": "Feature",
      "properties": {
        "hazard_level": "high",
        "label": "SAMPLE DATA - NOT REAL HAZARD DATA"
      },
      "geometry": {
        "type": "Polygon",
        "coordinates": [[[121.075, 13.765], [121.11, 13.765], [121.11, 13.79], [121.075, 13.79], [121.075, 13.765]]]
      }
    }
  ]
}
